NORAD_CAT_ID,OBJECT_NAME,OBJECT_TYPE,EPOCH,MEAN_MOTION,ECCENTRICITY,INCLINATION,RA_OF_ASC_NODE,ARG_OF_PERICENTER,MEAN_ANOMALY,BSTAR,MEAN_MOTION_DOT,MEAN_MOTION_DDOT,TLE_LINE0,TLE_LINE1,TLE_LINE2,SEMIMAJOR_AXIS,PERIOD,APOGEE,PERIGEE,DECAYED
53911.0,STARLINK-5048,PAYLOAD,2024-02-09 10:55:03,15.08850413,0.0001491,53.2157,122.6425,81.8652,278.2509,0.0002098,3.053e-05,0.0,0 STARLINK-5048,1 53911U 22119AB  24040.45490587  .00003053  00000-0  20980-3 0  9999,2 53911  53.2157 122.6425 0001491  81.8652 278.2509 15.08850413 76787,6917.849,95.437,540.745,538.682,0.0
53911.0,STARLINK-5048,PAYLOAD,2024-02-10 04:24:18,15.08838496,0.0003081,53.216,119.3599,146.2933,213.8256,1.8708e-05,9e-08,0.0,0 STARLINK-5048,1 53911U 22119AB  24041.18354486  .00000009  00000-0  18708-4 0  9991,2 53911  53.2160 119.3599 0003081 146.2933 213.8256 15.08838496 76894,6917.885,95.438,541.881,537.619,0.0
53911.0,STARLINK-5048,PAYLOAD,2024-02-10 12:21:14,15.08840642,0.0001651,53.217,117.8844,67.7816,292.3351,0.00013697,1.893e-05,0.0,0 STARLINK-5048,1 53911U 22119AB  24041.51475107  .00001893  00000-0  13697-3 0  9995,2 53911  53.2170 117.8844 0001651  67.7816 292.3351 15.08840642 77366,6917.878,95.438,540.886,538.601,0.0
53911.0,STARLINK-5048,PAYLOAD,2024-02-11 12:12:01,15.0884878,0.0001875,53.217,113.4245,62.7522,297.3661,0.00036742,5.566e-05,0.0,0 STARLINK-5048,1 53911U 22119AB  24042.50834942  .00005566  00000-0  36742-3 0  9998,2 53911  53.2170 113.4245 0001875  62.7522 297.3661 15.08848780 77090,6917.854,95.437,541.016,538.421,0.0
53911.0,STARLINK-5048,PAYLOAD,2024-02-12 12:02:47,15.08857778,0.0001865,53.2168,108.9651,68.9423,291.1768,0.00045416,6.951e-05,0.0,0 STARLINK-5048,1 53911U 22119AB  24043.50194397  .00006951  00000-0  45416-3 0  9999,2 53911  53.2168 108.9651 0001865  68.9423 291.1768 15.08857778 77664,6917.826,95.436,540.981,538.401,0.0
53911.0,STARLINK-5048,PAYLOAD,2024-02-13 03:56:39,15.08838251,0.0001877,53.2164,105.9911,74.4861,285.6338,-4.5651e-05,-1.015e-05,0.0,0 STARLINK-5048,1 53911U 22119AB  24044.16434902 -.00001015  00000-0 -45651-4 0  9991,2 53911  53.2164 105.9911 0001877  74.4861 285.6338 15.08838251 77348,6917.886,95.438,541.049,538.452,0.0
53911.0,STARLINK-5048,PAYLOAD,2024-02-13 10:18:12,15.08835584,0.0001695,53.2161,104.7991,81.2004,278.918,-5.1493e-05,-1.107e-05,0.0,0 STARLINK-5048,1 53911U 22119AB  24044.42931157 -.00001107  00000-0 -51493-4 0  9997,2 53911  53.2161 104.7991 0001695  81.2004 278.9180 15.08835584 77800,6917.894,95.438,540.931,538.586,0.0
53911.0,STARLINK-5048,PAYLOAD,2024-02-13 21:25:54,15.0884186,0.0001684,53.2163,102.717,88.7762,271.3423,0.00018529,2.662e-05,0.0,0 STARLINK-5048,1 53911U 22119AB  24044.89299101  .00002662  00000-0  18529-3 0  9991,2 53911  53.2163 102.7170 0001684  88.7762 271.3423 15.08841860 77878,6917.875,95.437,540.905,538.575,0.0
53911.0,STARLINK-5048,PAYLOAD,2024-02-14 10:08:58,15.08874921,0.0001453,53.2171,100.3361,87.3773,272.7386,0.001305,0.00020562,0.0,0 STARLINK-5048,1 53911U 22119AB  24045.42290126  .00020562  00000-0  13050-2 0  9991,2 53911  53.2171 100.3361 0001453  87.3773 272.7386 15.08874921 77534,6917.774,95.435,540.644,538.633,0.0
53911.0,STARLINK-5048,PAYLOAD,2024-02-15 08:24:23,15.08826701,0.0001897,53.2156,96.1737,113.8235,246.2956,-0.00033861,-5.671e-05,0.0,0 STARLINK-5048,1 53911U 22119AB  24046.35026727 -.00005671  00000-0 -33861-3 0  9997,2 53911  53.2156  96.1737 0001897 113.8235 246.2956 15.08826701 77673,6917.921,95.438,541.098,538.474,0.0
53911.0,STARLINK-5048,PAYLOAD,2024-02-15 13:10:33,15.08814318,0.000184,53.2157,95.2821,113.5958,246.5227,0.0015581,0.00024579,0.0,0 STARLINK-5048,1 53911U 22119AB  24046.54899557  .00024579  00000-0  15581-2 0  9991,2 53911  53.2157  95.2821 0001840 113.5958 246.5227 15.08814318 78121,6917.959,95.439,541.097,538.551,0.0
53911.0,STARLINK-5048,PAYLOAD,2024-02-16 13:01:20,15.08861756,0.0001647,53.2156,90.8218,100.5098,259.608,0.0015555,0.00024569,0.0,0 STARLINK-5048,1 53911U 22119AB  24047.54259681  .00024569  00000-0  15555-2 0  9990,2 53911  53.2156  90.8218 0001647 100.5098 259.6080 15.08861756 78273,6917.814,95.436,540.818,538.54,0.0
53911.0,STARLINK-5048,PAYLOAD,2024-02-17 03:19:48,15.08844784,0.0001148,53.216,88.145,94.0487,266.0637,0.00084883,0.00013249,0.0,0 STARLINK-5048,1 53911U 22119AB  24048.13875927  .00013249  00000-0  84883-3 0  9997,2 53911  53.2160  88.1450 0001148  94.0487 266.0637 15.08844784 77946,6917.866,95.437,540.525,538.937,0.0
53911.0,STARLINK-5048,PAYLOAD,2024-02-17 09:41:21,15.08851022,0.0001553,53.2157,86.9556,95.3565,264.7604,0.00061247,9.476e-05,0.0,0 STARLINK-5048,1 53911U 22119AB  24048.40371798  .00009476  00000-0  61247-3 0  9990,2 53911  53.2157  86.9556 0001553  95.3565 264.7604 15.08851022 78400,6917.847,95.437,540.786,538.637,0.0
53911.0,STARLINK-5048,PAYLOAD,2024-02-17 19:13:40,15.08846697,0.0001637,53.2156,85.1721,90.6682,269.4498,0.00051704,7.952e-05,0.0,0 STARLINK-5048,1 53911U 22119AB  24048.80115895  .00007952  00000-0  51704-3 0  9992,2 53911  53.2156  85.1721 0001637  90.6682 269.4498 15.08846697 78040,6917.86,95.437,540.857,538.592,0.0
53911.0,STARLINK-5048,PAYLOAD,2024-02-18 03:10:36,15.08834792,0.0001819,53.2172,83.6867,97.2946,262.8253,-2.4014e-05,-6.7e-06,0.0,0 STARLINK-5048,1 53911U 22119AB  24049.13236185 -.00000670  00000-0 -24014-4 0  9992,2 53911  53.2172  83.6867 0001819  97.2946 262.8253 15.08834792 78094,6917.896,95.438,541.02,538.503,0.0
53911.0,STARLINK-5048,PAYLOAD,2024-02-18 09:32:08,15.08841129,0.0001826,53.2172,82.4977,98.3446,261.7753,5.973e-05,6.63e-06,0.0,0 STARLINK-5048,1 53911U 22119AB  24049.39732089  .00000663  00000-0  59730-4 0  9997,2 53911  53.2172  82.4977 0001826  98.3446 261.7753 15.08841129 78554,6917.877,95.437,541.005,538.479,0.0
53911.0,STARLINK-5048,PAYLOAD,2024-02-18 19:04:27,15.08841457,0.0001809,53.2167,80.713,91.2948,268.8251,0.00011247,1.502e-05,0.0,0 STARLINK-5048,1 53911U 22119AB  24049.79476152  .00001502  00000-0  11247-3 0  9990,2 53911  53.2167  80.7130 0001809  91.2948 268.8251 15.08841457 78612,6917.876,95.437,540.992,538.489,0.0
53911.0,STARLINK-5048,PAYLOAD,2024-02-19 09:22:55,15.08845242,0.0001811,53.2164,78.0358,87.6747,272.4452,0.00021179,3.085e-05,0.0,0 STARLINK-5048,1 53911U 22119AB  24050.39092083  .00003085  00000-0  21179-3 0  9998,2 53911  53.2164  78.0358 0001811  87.6747 272.4452 15.08845242 78283,6917.864,95.437,540.982,538.477,0.0
53911.0,STARLINK-5048,PAYLOAD,2024-02-19 18:55:14,15.08843773,0.0001872,53.2171,76.2522,88.9465,271.1741,0.00016005,2.26e-05,0.0,0 STARLINK-5048,1 53911U 22119AB  24050.78836167  .00002260  00000-0  16005-3 0  9996,2 53911  53.2171  76.2522 0001872  88.9465 271.1741 15.08843773 78769,6917.869,95.437,541.029,538.439,0.0
53911.0,STARLINK-5048,PAYLOAD,2024-02-20 10:49:05,15.0884412,0.0001724,53.2159,73.2751,94.6181,265.5009,0.00012362,1.68e-05,0.0,0 STARLINK-5048,1 53911U 22119AB  24051.45076142  .00001680  00000-0  12362-3 0  9997,2 53911  53.2159  73.2751 0001724  94.6181 265.5009 15.08844120 78447,6917.868,95.437,540.925,538.54,0.0
53911.0,STARLINK-5048,PAYLOAD,2024-02-21 01:07:34,15.08840386,0.0002044,53.2161,70.6011,98.374,261.7484,8.3695e-05,1.044e-05,0.0,0 STARLINK-5048,1 53911U 22119AB  24052.04692479  .00001044  00000-0  83695-4 0  9992,2 53911  53.2161  70.6011 0002044  98.3740 261.7484 15.08840386 78533,6917.879,95.438,541.158,538.33,0.0
53911.0,STARLINK-5048,PAYLOAD,2024-02-21 07:29:06,15.08841025,0.0001882,53.215,69.4117,94.7475,265.3732,9.674e-05,1.252e-05,0.0,0 STARLINK-5048,1 53911U 22119AB  24052.31188452  .00001252  00000-0  96740-4 0  9999,2 53911  53.2150  69.4117 0001882  94.7475 265.3732 15.08841025 78995,6917.877,95.437,541.044,538.44,0.0
53911.0,STARLINK-5048,PAYLOAD,2024-02-21 18:36:48,15.08838814,0.0001635,53.2155,67.3306,91.7452,268.3727,7.3069e-05,8.75e-06,0.0,0 STARLINK-5048,1 53911U 22119AB  24052.77556590  .00000875  00000-0  73069-4 0  9990,2 53911  53.2155  67.3306 0001635  91.7452 268.3727 15.08838814 79063,6917.884,95.438,540.88,538.618,0.0
53911.0,STARLINK-5048,PAYLOAD,2024-02-22 04:09:07,15.08838678,0.0001641,53.2148,65.5464,91.0742,269.0438,0.0001279,1.748e-05,0.0,0 STARLINK-5048,1 53911U 22119AB  24053.17300698  .00001748  00000-0  12790-3 0  9994,2 53911  53.2148  65.5464 0001641  91.0742 269.0438 15.08838678 78707,6917.884,95.438,540.885,538.614,0.0
53911.0,STARLINK-5048,PAYLOAD,2024-02-22 10:30:40,15.08841711,0.0001689,53.2154,64.3557,97.2257,262.8928,0.00023764,3.496e-05,0.0,0 STARLINK-5048,1 53911U 22119AB  24053.43796552  .00003496  00000-0  23764-3 0  9996,2 53911  53.2154  64.3557 0001689  97.2257 262.8928 15.08841711 79163,6917.875,95.437,540.909,538.572,0.0
53911.0,STARLINK-5048,PAYLOAD,2024-02-23 07:10:40,15.08841645,0.000168,53.2156,60.488,100.3297,259.7884,0.00027408,4.077e-05,0.0,0 STARLINK-5048,1 53911U 22119AB  24054.29908485  .00004077  00000-0  27408-3 0  9996,2 53911  53.2156  60.4880 0001680 100.3297 259.7884 15.08841645 78871,6917.875,95.437,540.903,538.578,0.0
53911.0,STARLINK-5048,PAYLOAD,2024-02-23 16:43:00,15.08832887,0.0001682,53.2168,58.7043,101.7371,258.381,0.00028187,4.2e-05,0.0,0 STARLINK-5048,1 53911U 22119AB  24054.69652880  .00004200  00000-0  28187-3 0  9998,2 53911  53.2168  58.7043 0001682 101.7371 258.3810 15.08832887 78934,6917.902,95.438,540.931,538.604,0.0
53911.0,STARLINK-5048,PAYLOAD,2024-02-24 07:01:28,15.08834702,0.0001706,53.2179,56.0334,93.5556,266.5631,5.7836e-05,6.32e-06,0.0,0 STARLINK-5048,1 53911U 22119AB  24055.29269212  .00000632  00000-0  57836-4 0  9997,2 53911  53.2179  56.0334 0001706  93.5556 266.5631 15.08834702 79447,6917.897,95.438,540.942,538.581,0.0
53911.0,STARLINK-5048,PAYLOAD,2024-02-24 16:33:47,15.08838062,0.0001831,53.218,54.2495,113.8305,246.2879,-4.8026e-06,-3.65e-06,0.0,0 STARLINK-5048,1 53911U 22119AB  24055.69013133 -.00000365  00000-0 -48026-5 0  9997,2 53911  53.2180  54.2495 0001831 113.8305 246.2879 15.08838062 79503,6917.886,95.438,541.018,538.485,0.0
